[
    {
        "CCSDS_OMM_VERS": "3.0",
        "COMMENT": "GENERATED VIA SPACE-TRACK.ORG API",
        "CREATION_DATE": "2025-04-12T03:00:55",
        "ORIGINATOR": "18 SPCS",
        "OBJECT_NAME": "BEIDOU 5",
        "OBJECT_ID": "2010-036A",
        "CENTER_NAME": "EARTH",
        "REF_FRAME": "TEME",
        "TIME_SYSTEM": "UTC",
        "MEAN_ELEMENT_THEORY": "SGP4",
        "EPOCH": "2025-04-11T15:00:38.822112",
        "MEAN_MOTION": "1.00296785",
        "ECCENTRICITY": "0.00486450",
        "INCLINATION": "54.2656",
        "RA_OF_ASC_NODE": "166.8617",
        "ARG_OF_PERICENTER": "215.6178",
        "MEAN_ANOMALY": "147.2636",
        "EPHEMERIS_TYPE": "0",
        "CLASSIFICATION_TYPE": "U",
        "NORAD_CAT_ID": "36828",
        "ELEMENT_SET_NO": "999",
        "REV_AT_EPOCH": "5377",
        "BSTAR": "0.00000000000000",
        "MEAN_MOTION_DOT": "-0.00000087",
        "MEAN_MOTION_DDOT": "0.0000000000000",
        "SEMIMAJOR_AXIS": "42157.725",
        "PERIOD": "1435.739",
        "APOAPSIS": "35984.666",
        "PERIAPSIS": "35574.514",
        "OBJECT_TYPE": "PAYLOAD",
        "RCS_SIZE": "LARGE",
        "COUNTRY_CODE": "PRC",
        "LAUNCH_DATE": "2010-07-31",
        "SITE": "XSC",
        "DECAY_DATE": null,
        "FILE": "4699215",
        "GP_ID": "285395709",
        "TLE_LINE0": "0 BEIDOU 5",
        "TLE_LINE1": "1 36828U 10036A   25101.62544933 -.00000087  00000-0  00000-0 0  9998",
        "TLE_LINE2": "2 36828  54.2656 166.8617 0048645 215.6178 147.2636  1.00296785 53778"
    }
]